NORAD_CAT_ID,OBJECT_NAME,OBJECT_TYPE,EPOCH,MEAN_MOTION,ECCENTRICITY,INCLINATION,RA_OF_ASC_NODE,ARG_OF_PERICENTER,MEAN_ANOMALY,BSTAR,MEAN_MOTION_DOT,MEAN_MOTION_DDOT,TLE_LINE0,TLE_LINE1,TLE_LINE2,SEMIMAJOR_AXIS,PERIOD,APOGEE,PERIGEE,DECAYED
51778.0,STARLINK-3615,PAYLOAD,2024-06-08 04:25:18,15.08860161,0.000121,53.2129,319.8423,100.7875,259.3253,0.00027835,4.147e-05,0.0,0 STARLINK-3615,1 51778U 22017L   24160.18424290  .00004147  00000-0  27835-3 0  9997,2 51778  53.2129 319.8423 0001210 100.7875 259.3253 15.08860161127661,6917.819,95.436,540.521,538.847,0.0
51778.0,STARLINK-3615,PAYLOAD,2024-06-08 17:08:24,15.08853872,0.0003475,53.2105,317.4616,94.7228,265.4161,0.00020891,3.039e-05,0.0,0 STARLINK-3615,1 51778U 22017L   24160.71416885  .00003039  00000-0  20891-3 0  9991,2 51778  53.2105 317.4616 0003475  94.7228 265.4161 15.08853872127748,6917.838,95.437,542.107,537.299,0.0
51778.0,STARLINK-3615,PAYLOAD,2024-06-08 21:54:35,15.08834599,0.0002107,53.2158,316.5736,89.6007,270.5226,1.6309e-05,-2.9e-07,0.0,0 STARLINK-3615,1 51778U 22017L   24160.91290719 -.00000029  00000-0  16309-4 0  9996,2 51778  53.2158 316.5736 0002107  89.6007 270.5226 15.08834599127775,6917.897,95.438,541.219,538.304,0.0
51778.0,STARLINK-3615,PAYLOAD,2024-06-09 18:34:36,15.08841333,0.0001242,53.2191,312.7074,83.2882,276.8252,-0.00013308,-2.405e-05,0.0,0 STARLINK-3615,1 51778U 22017L   24161.77402957 -.00002405  00000-0 -13308-3 0  9996,2 51778  53.2191 312.7074 0001242  83.2882 276.8252 15.08841333126259,6917.876,95.437,540.601,538.882,0.0
51778.0,STARLINK-3615,PAYLOAD,2024-06-10 02:31:30,15.0885563,0.0001129,53.219,311.2219,82.771,277.341,-3.2502e-05,-8.05e-06,0.0,0 STARLINK-3615,1 51778U 22017L   24162.10521688 -.00000805  00000-0 -32502-4 0  9997,2 51778  53.2190 311.2219 0001129  82.7710 277.3410 15.08855630127956,6917.833,95.437,540.479,538.917,0.0
51778.0,STARLINK-3615,PAYLOAD,2024-06-10 13:39:14,15.08825375,0.0001618,53.2161,309.1411,80.9867,279.1308,2.9077e-05,1.75e-06,0.0,0 STARLINK-3615,1 51778U 22017L   24162.56891686  .00000175  00000-0  29077-4 0  9996,2 51778  53.2161 309.1411 0001618  80.9867 279.1308 15.08825375128028,6917.925,95.438,540.909,538.671,0.0
51778.0,STARLINK-3615,PAYLOAD,2024-06-10 16:49:59,15.08837195,0.0001566,53.218,308.544,77.8155,282.3013,0.00013236,1.819e-05,0.0,0 STARLINK-3615,1 51778U 22017L   24162.70138769  .00001819  00000-0  13236-3 0  9993,2 51778  53.2180 308.5440 0001566  77.8155 282.3013 15.08837195128045,6917.889,95.438,540.837,538.671,0.0
51778.0,STARLINK-3615,PAYLOAD,2024-06-11 02:22:17,15.08850972,0.0001347,53.2197,306.7597,75.3963,284.7178,0.00015096,2.116e-05,0.0,0 STARLINK-3615,1 51778U 22017L   24163.09881738  .00002116  00000-0  15096-3 0  9994,2 51778  53.2197 306.7597 0001347  75.3963 284.7178 15.08850972128106,6917.847,95.437,540.644,538.78,0.0
51778.0,STARLINK-3615,PAYLOAD,2024-06-11 13:30:01,15.08835776,0.000119,53.2189,304.6808,91.9638,268.149,-1.6908e-05,-5.57e-06,0.0,0 STARLINK-3615,1 51778U 22017L   24163.56251565 -.00000557  00000-0 -16908-4 0  9998,2 51778  53.2189 304.6808 0001190  91.9638 268.1490 15.08835776126520,6917.893,95.438,540.582,538.935,0.0
51778.0,STARLINK-3615,PAYLOAD,2024-06-11 16:40:47,15.08838339,0.0001064,53.218,304.0877,94.0721,266.0393,1.4402e-05,-5.9e-07,0.0,0 STARLINK-3615,1 51778U 22017L   24163.69499316 -.00000059  00000-0  14402-4 0  9993,2 51778  53.2180 304.0877 0001064  94.0721 266.0393 15.08838339128190,6917.885,95.438,540.487,539.014,0.0
51778.0,STARLINK-3615,PAYLOAD,2024-06-12 16:31:34,15.08834521,0.0001129,53.2191,299.6276,96.8663,263.2458,0.00010955,1.456e-05,0.0,0 STARLINK-3615,1 51778U 22017L   24164.68859519  .00001456  00000-0  10955-3 0  9997,2 51778  53.2191 299.6276 0001129  96.8663 263.2458 15.08834521126694,6917.897,95.438,540.543,538.981,0.0
51778.0,STARLINK-3615,PAYLOAD,2024-06-13 08:25:26,15.08813982,9.75e-05,53.2181,296.6522,96.5308,263.5795,0.00042962,6.551e-05,0.0,0 STARLINK-3615,1 51778U 22017L   24165.35100133  .00006551  00000-0  42962-3 0  9997,2 51778  53.2181 296.6522 0000975  96.5308 263.5795 15.08813982128445,6917.96,95.439,540.499,539.15,0.0
51778.0,STARLINK-3615,PAYLOAD,2024-06-13 14:46:58,15.08842131,0.000104,53.2175,295.4626,74.0717,286.0389,9.4068e-05,1.21e-05,0.0,0 STARLINK-3615,1 51778U 22017L   24165.61595194  .00001210  00000-0  94068-4 0  9993,2 51778  53.2175 295.4626 0001040  74.0717 286.0389 15.08842131126837,6917.874,95.437,540.458,539.019,0.0
51778.0,STARLINK-3615,PAYLOAD,2024-06-13 17:57:44,15.08848931,0.0001114,53.2179,294.8677,72.0974,288.014,0.00013715,1.896e-05,0.0,0 STARLINK-3615,1 51778U 22017L   24165.74842647  .00001896  00000-0  13715-3 0  9994,2 51778  53.2179 294.8677 0001114  72.0974 288.0140 15.08848931126858,6917.853,95.437,540.489,538.947,0.0
51778.0,STARLINK-3615,PAYLOAD,2024-06-14 14:37:45,15.08832904,0.0001036,53.2184,291.0017,84.8808,275.2303,6.0357e-05,6.73e-06,0.0,0 STARLINK-3615,1 51778U 22017L   24166.60955834  .00000673  00000-0  60357-4 0  9990,2 51778  53.2184 291.0017 0001036  84.8808 275.2303 15.08832904126987,6917.902,95.438,540.484,539.05,0.0
51778.0,STARLINK-3615,PAYLOAD,2024-06-14 17:48:31,15.08839256,0.0001187,53.2181,290.4057,89.5887,270.5242,0.00011785,1.588e-05,0.0,0 STARLINK-3615,1 51778U 22017L   24166.74203368  .00001588  00000-0  11785-3 0  9999,2 51778  53.2181 290.4057 0001187  89.5887 270.5242 15.08839256127008,6917.883,95.438,540.569,538.927,0.0
51778.0,STARLINK-3615,PAYLOAD,2024-06-15 14:28:32,15.08844875,0.0001379,53.2204,286.5418,98.7488,261.366,2.9628e-05,1.84e-06,0.0,0 STARLINK-3615,1 51778U 22017L   24167.60315182  .00000184  00000-0  29628-4 0  9990,2 51778  53.2204 286.5418 0001379  98.7488 261.3660 15.08844875127132,6917.865,95.437,540.684,538.777,0.0
51778.0,STARLINK-3615,PAYLOAD,2024-06-16 14:19:19,15.08832217,0.0001278,53.2194,282.0844,86.4938,273.62,5.6042e-05,6.04e-06,0.0,0 STARLINK-3615,1 51778U 22017L   24168.59675916  .00000604  00000-0  56042-4 0  9990,2 51778  53.2194 282.0844 0001278  86.4938 273.6200 15.08832217127285,6917.904,95.438,540.653,538.885,0.0
51778.0,STARLINK-3615,PAYLOAD,2024-06-16 17:30:06,15.08839332,0.0001244,53.219,281.4894,85.1221,274.9913,-1.7507e-05,-5.66e-06,0.0,0 STARLINK-3615,1 51778U 22017L   24168.72923702 -.00000566  00000-0 -17507-4 0  9996,2 51778  53.2190 281.4894 0001244  85.1221 274.9913 15.08839332127306,6917.882,95.438,540.608,538.887,0.0
51778.0,STARLINK-3615,PAYLOAD,2024-06-17 14:10:06,15.08836347,0.0001295,53.2181,277.6222,90.9078,269.2063,8.296e-05,1.033e-05,0.0,0 STARLINK-3615,1 51778U 22017L   24169.59035766  .00001033  00000-0  82960-4 0  9999,2 51778  53.2181 277.6222 0001295  90.9078 269.2063 15.08836347129081,6917.892,95.438,540.652,538.861,0.0
51778.0,STARLINK-3615,PAYLOAD,2024-06-18 06:03:57,15.08843818,0.000132,53.2181,274.6473,90.4636,269.6507,0.00018472,2.653e-05,0.0,0 STARLINK-3615,1 51778U 22017L   24170.25274905  .00002653  00000-0  18472-3 0  9999,2 51778  53.2181 274.6473 0001320  90.4636 269.6507 15.08843818129189,6917.869,95.437,540.647,538.821,0.0
51778.0,STARLINK-3615,PAYLOAD,2024-06-18 14:00:54,15.08831621,0.0001454,53.2191,273.1649,98.9837,261.1319,0.00015575,2.191e-05,0.0,0 STARLINK-3615,1 51778U 22017L   24170.58395928  .00002191  00000-0  15575-3 0  9992,2 51778  53.2191 273.1649 0001454  98.9837 261.1319 15.08831621129236,6917.906,95.438,540.777,538.765,0.0
51778.0,STARLINK-3615,PAYLOAD,2024-06-19 13:51:41,15.08829935,0.00014,53.2189,268.7029,97.0795,263.0356,-1.1403e-05,-4.69e-06,0.0,0 STARLINK-3615,1 51778U 22017L   24171.57756752 -.00000469  00000-0 -11403-4 0  9993,2 51778  53.2189 268.7029 0001400  97.0795 263.0356 15.08829935127739,6917.911,95.438,540.745,538.808,0.0
51778.0,STARLINK-3615,PAYLOAD,2024-06-19 15:27:04,15.0883238,0.000136,53.2191,268.4044,87.1817,272.9331,1.2834e-05,-8.4e-07,0.0,0 STARLINK-3615,1 51778U 22017L   24171.64380581 -.00000084  00000-0  12834-4 0  9995,2 51778  53.2191 268.4044 0001360  87.1817 272.9331 15.08832380129390,6917.904,95.438,540.71,538.828,0.0
51778.0,STARLINK-3615,PAYLOAD,2024-06-20 13:42:28,15.08842575,0.0001365,53.2181,264.2395,76.375,283.7395,4.9699e-05,5.03e-06,0.0,0 STARLINK-3615,1 51778U 22017L   24172.57116019  .00000503  00000-0  49699-4 0  9995,2 51778  53.2181 264.2395 0001365  76.3750 283.7395 15.08842575127882,6917.873,95.437,540.682,538.793,0.0
51778.0,STARLINK-3615,PAYLOAD,2024-06-20 15:17:51,15.08842997,0.0001402,53.2185,263.943,86.9802,273.135,6.9052e-05,8.11e-06,0.0,0 STARLINK-3615,1 51778U 22017L   24172.63739911  .00000811  00000-0  69052-4 0  9991,2 51778  53.2185 263.9430 0001402  86.9802 273.1350 15.08842997129546,6917.871,95.437,540.706,538.766,0.0
51778.0,STARLINK-3615,PAYLOAD,2024-06-21 05:36:18,15.08848972,0.0001799,53.218,261.2644,75.3138,284.8053,0.00015885,2.242e-05,0.0,0 STARLINK-3615,1 51778U 22017L   24173.23355205  .00002242  00000-0  15885-3 0  9992,2 51778  53.2180 261.2644 0001799  75.3138 284.8053 15.08848972129630,6917.853,95.437,540.962,538.473,0.0
51778.0,STARLINK-3615,PAYLOAD,2024-06-21 11:57:52,15.08834415,0.000147,53.2184,260.0777,80.934,279.1819,6.8809e-05,8.07e-06,0.0,0 STARLINK-3615,1 51778U 22017L   24173.49852488  .00000807  00000-0  68809-4 0  9995,2 51778  53.2184 260.0777 0001470  80.9340 279.1819 15.08834415129679,6917.897,95.438,540.779,538.746,0.0
51778.0,STARLINK-3615,PAYLOAD,2024-06-22 11:48:39,15.08844652,0.000138,53.218,255.6176,81.2552,278.8596,8.2911e-06,-1.56e-06,0.0,0 STARLINK-3615,1 51778U 22017L   24174.49212099 -.00000156  00000-0  82911-5 0  9993,2 51778  53.2180 255.6176 0001380  81.2552 278.8596 15.08844652129826,6917.866,95.437,540.686,538.777,0.0
51778.0,STARLINK-3615,PAYLOAD,2024-06-23 11:39:26,15.08841086,0.0001357,53.2182,251.1564,96.405,263.7096,7.4505e-05,8.98e-06,0.0,0 STARLINK-3615,1 51778U 22017L   24175.48571868  .00000898  00000-0  74505-4 0  9996,2 51778  53.2182 251.1564 0001357  96.4050 263.7096 15.08841086128325,6917.877,95.437,540.681,538.803,0.0
